CTC1_L_00079001-01
1 10000U 26409MZ  26075.70030093  .00000000  00000+0  00000-0 0  9993
2 10000  90.0000   0.0000 0000000   0.0000   0.0000 14.89338871    15
CTC1_L_00079001-02
1 10001U 22602UA  26075.70030093  .00000000  00000+0  00000-0 0  9995
2 10001  90.0000   0.0000 0000000   0.0000  90.0000 14.89338871    15
CTC1_L_00079001-03
1 10002U 23999FU  26075.70030093  .00000000  00000+0  00000-0 0  9996
2 10002  90.0000   0.0000 0000000   0.0000 180.0000 14.89338871    16
CTC1_L_00079001-04
1 10003U 22821VJ  26075.70030093  .00000000  00000+0  00000-0 0  9990
2 10003  90.0000   0.0000 0000000   0.0000 270.0000 14.89338871    17
CTC1_L_00079002-01
1 10004U 23583XM  26075.70030093  .00000000  00000+0  00000-0 0  9997
2 10004  90.0000  12.0000 0000000   0.0000  12.0000 14.89338871    15
CTC1_L_00079002-02
1 10005U 23854YH  26075.70030093  .00000000  00000+0  00000-0 0  9999
2 10005  90.0000  12.0000 0000000   0.0000 102.0000 14.89338871    16
CTC1_L_00079002-03
1 10006U 22448DE  26075.70030093  .00000000  00000+0  00000-0 0  9998
2 10006  90.0000  12.0000 0000000   0.0000 192.0000 14.89338871    16
CTC1_L_00079002-04
1 10007U 22974DC  26075.70030093  .00000000  00000+0  00000-0 0  9993
2 10007  90.0000  12.0000 0000000   0.0000 282.0000 14.89338871    17
CTC1_L_00079003-01
1 10008U 25910CF  26075.70030093  .00000000  00000+0  00000-0 0  9997
2 10008  90.0000  24.0000 0000000   0.0000  24.0000 14.89338871    15
CTC1_L_00079003-02
1 10009U 25349YU  26075.70030093  .00000000  00000+0  00000-0 0  9994
2 10009  90.0000  24.0000 0000000   0.0000 114.0000 14.89338871    16
CTC1_L_00079003-03
1 10010U 23613XT  26075.70030093  .00000000  00000+0  00000-0 0  9998
2 10010  90.0000  24.0000 0000000   0.0000 204.0000 14.89338871    18
CTC1_L_00079003-04
1 10011U 25403IA  26075.70030093  .00000000  00000+0  00000-0 0  9998
2 10011  90.0000  24.0000 0000000   0.0000 294.0000 14.89338871    18
CTC1_L_00079004-01
1 10012U 23539DR  26075.70030093  .00000000  00000+0  00000-0 0  9997
2 10012  90.0000  36.0000 0000000   0.0000  36.0000 14.89338871    16
CTC1_L_00079004-02
1 10013U 23908OO  26075.70030093  .00000000  00000+0  00000-0 0  9998
2 10013  90.0000  36.0000 0000000   0.0000 126.0000 14.89338871    17
CTC1_L_00079004-03
1 10014U 22891HS  26075.70030093  .00000000  00000+0  00000-0 0  9999
2 10014  90.0000  36.0000 0000000   0.0000 216.0000 14.89338871    18
CTC1_L_00079004-04
1 10015U 22611PY  26075.70030093  .00000000  00000+0  00000-0 0  9990
2 10015  90.0000  36.0000 0000000   0.0000 306.0000 14.89338871    19
CTC1_L_00079005-01
1 10016U 25080KR  26075.70030093  .00000000  00000+0  00000-0 0  9994
2 10016  90.0000  48.0000 0000000   0.0000  48.0000 14.89338871    16
CTC1_L_00079005-02
1 10017U 22293UX  26075.70030093  .00000000  00000+0  00000-0 0  9998
2 10017  90.0000  48.0000 0000000   0.0000 138.0000 14.89338871    17
CTC1_L_00079005-03
1 10018U 26099XG  26075.70030093  .00000000  00000+0  00000-0 0  9997
2 10018  90.0000  48.0000 0000000   0.0000 228.0000 14.89338871    18
CTC1_L_00079005-04
1 10019U 23369NW  26075.70030093  .00000000  00000+0  00000-0 0  9995
2 10019  90.0000  48.0000 0000000   0.0000 318.0000 14.89338871    19
CTC1_L_00079006-01
1 10020U 22442ML  26075.70030093  .00000000  00000+0  00000-0 0  9998
2 10020  90.0000  60.0000 0000000   0.0000  60.0000 14.89338871    19
CTC1_L_00079006-02
1 10021U 23223WM  26075.70030093  .00000000  00000+0  00000-0 0  9997
2 10021  90.0000  60.0000 0000000   0.0000 150.0000 14.89338871    10
CTC1_L_00079006-03
1 10022U 23922KH  26075.70030093  .00000000  00000+0  00000-0 0  9994
2 10022  90.0000  60.0000 0000000   0.0000 240.0000 14.89338871    11
CTC1_L_00079006-04
1 10023U 22896CO  26075.70030093  .00000000  00000+0  00000-0 0  9994
2 10023  90.0000  60.0000 0000000   0.0000 330.0000 14.89338871    12
CTC1_L_00079007-01
1 10024U 25554TM  26075.70030093  .00000000  00000+0  00000-0 0  9999
2 10024  90.0000  72.0000 0000000   0.0000  72.0000 14.89338871    19
CTC1_L_00079007-02
1 10025U 23904KO  26075.70030093  .00000000  00000+0  00000-0 0  9997
2 10025  90.0000  72.0000 0000000   0.0000 162.0000 14.89338871    10
CTC1_L_00079007-03
1 10026U 25150AC  26075.70030093  .00000000  00000+0  00000-0 0  9993
2 10026  90.0000  72.0000 0000000   0.0000 252.0000 14.89338871    11
CTC1_L_00079007-04
1 10027U 26081WV  26075.70030093  .00000000  00000+0  00000-0 0  9998
2 10027  90.0000  72.0000 0000000   0.0000 342.0000 14.89338871    12
CTC1_L_00079008-01
1 10028U 23449N   26075.70030093  .00000000  00000+0  00000-0 0  9994
2 10028  90.0000  84.0000 0000000   0.0000  84.0000 14.89338871    19
CTC1_L_00079008-02
1 10029U 25764VE  26075.70030093  .00000000  00000+0  00000-0 0  9997
2 10029  90.0000  84.0000 0000000   0.0000 174.0000 14.89338871    10
CTC1_L_00079008-03
1 10030U 23779TJ  26075.70030093  .00000000  00000+0  00000-0 0  9993
2 10030  90.0000  84.0000 0000000   0.0000 264.0000 14.89338871    12
CTC1_L_00079008-04
1 10031U 25260XR  26075.70030093  .00000000  00000+0  00000-0 0  9991
2 10031  90.0000  84.0000 0000000   0.0000 354.0000 14.89338871    13
CTC1_L_00079009-01
1 10032U 25560HT  26075.70030093  .00000000  00000+0  00000-0 0  9995
2 10032  90.0000  96.0000 0000000   0.0000  96.0000 14.89338871    10
CTC1_L_00079009-02
1 10033U 23357SE  26075.70030093  .00000000  00000+0  00000-0 0  9998
2 10033  90.0000  96.0000 0000000   0.0000 186.0000 14.89338871    11
CTC1_L_00079009-03
1 10034U 26413PS  26075.70030093  .00000000  00000+0  00000-0 0  9995
2 10034  90.0000  96.0000 0000000   0.0000 276.0000 14.89338871    12
CTC1_L_00079009-04
1 10035U 25558YD  26075.70030093  .00000000  00000+0  00000-0 0  9995
2 10035  90.0000  96.0000 0000000   0.0000   6.0000 14.89338871    14
CTC1_L_00079010-01
1 10036U 25241OG  26075.70030093  .00000000  00000+0  00000-0 0  9995
2 10036  90.0000 108.0000 0000000   0.0000 108.0000 14.89338871    12
CTC1_L_00079010-02
1 10037U 26772AR  26075.70030093  .00000000  00000+0  00000-0 0  9996
2 10037  90.0000 108.0000 0000000   0.0000 198.0000 14.89338871    12
CTC1_L_00079010-03
1 10038U 22623KB  26075.70030093  .00000000  00000+0  00000-0 0  9998
2 10038  90.0000 108.0000 0000000   0.0000 288.0000 14.89338871    13
CTC1_L_00079010-04
1 10039U 23613FG  26075.70030093  .00000000  00000+0  00000-0 0  9999
2 10039  90.0000 108.0000 0000000   0.0000  18.0000 14.89338871    15
CTC1_L_00079011-01
1 10040U 22403LO  26075.70030093  .00000000  00000+0  00000-0 0  9997
2 10040  90.0000 120.0000 0000000   0.0000 120.0000 14.89338871    15
CTC1_L_00079011-02
1 10041U 24315PG  26075.70030093  .00000000  00000+0  00000-0 0  9992
2 10041  90.0000 120.0000 0000000   0.0000 210.0000 14.89338871    16
CTC1_L_00079011-03
1 10042U 24756U   26075.70030093  .00000000  00000+0  00000-0 0  9992
2 10042  90.0000 120.0000 0000000   0.0000 300.0000 14.89338871    17
CTC1_L_00079011-04
1 10043U 22312A   26075.70030093  .00000000  00000+0  00000-0 0  9999
2 10043  90.0000 120.0000 0000000   0.0000  30.0000 14.89338871    18
CTC1_L_00079012-01
1 10044U 26109BP  26075.70030093  .00000000  00000+0  00000-0 0  9998
2 10044  90.0000 132.0000 0000000   0.0000 132.0000 14.89338871    15
CTC1_L_00079012-02
1 10045U 23737KC  26075.70030093  .00000000  00000+0  00000-0 0  9993
2 10045  90.0000 132.0000 0000000   0.0000 222.0000 14.89338871    16
CTC1_L_00079012-03
1 10046U 26741MS  26075.70030093  .00000000  00000+0  00000-0 0  9992
2 10046  90.0000 132.0000 0000000   0.0000 312.0000 14.89338871    17
CTC1_L_00079012-04
1 10047U 25240DJ  26075.70030093  .00000000  00000+0  00000-0 0  9996
2 10047  90.0000 132.0000 0000000   0.0000  42.0000 14.89338871    18
CTC1_L_00079013-01
1 10048U 25162OU  26075.70030093  .00000000  00000+0  00000-0 0  9990
2 10048  90.0000 144.0000 0000000   0.0000 144.0000 14.89338871    15
CTC1_L_00079013-02
1 10049U 22974FH  26075.70030093  .00000000  00000+0  00000-0 0  9999
2 10049  90.0000 144.0000 0000000   0.0000 234.0000 14.89338871    16
CTC1_L_00079013-03
1 10050U 22186MV  26075.70030093  .00000000  00000+0  00000-0 0  9996
2 10050  90.0000 144.0000 0000000   0.0000 324.0000 14.89338871    18
CTC1_L_00079013-04
1 10051U 23844GF  26075.70030093  .00000000  00000+0  00000-0 0  9999
2 10051  90.0000 144.0000 0000000   0.0000  54.0000 14.89338871    19
CTC1_L_00079014-01
1 10052U 24532PF  26075.70030093  .00000000  00000+0  00000-0 0  9995
2 10052  90.0000 156.0000 0000000   0.0000 156.0000 14.89338871    16
CTC1_L_00079014-02
1 10053U 26579ID  26075.70030093  .00000000  00000+0  00000-0 0  9999
2 10053  90.0000 156.0000 0000000   0.0000 246.0000 14.89338871    17
CTC1_L_00079014-03
1 10054U 24525IJ  26075.70030093  .00000000  00000+0  00000-0 0  9999
2 10054  90.0000 156.0000 0000000   0.0000 336.0000 14.89338871    18
CTC1_L_00079014-04
1 10055U 22897CW  26075.70030093  .00000000  00000+0  00000-0 0  9990
2 10055  90.0000 156.0000 0000000   0.0000  66.0000 14.89338871    19
CTC1_L_00079015-01
1 10056U 22823RY  26075.70030093  .00000000  00000+0  00000-0 0  9990
2 10056  90.0000 168.0000 0000000   0.0000 168.0000 14.89338871    16
CTC1_L_00079015-02
1 10057U 24521OD  26075.70030093  .00000000  00000+0  00000-0 0  9998
2 10057  90.0000 168.0000 0000000   0.0000 258.0000 14.89338871    17
CTC1_L_00079015-03
1 10058U 23656MY  26075.70030093  .00000000  00000+0  00000-0 0  9997
2 10058  90.0000 168.0000 0000000   0.0000 348.0000 14.89338871    18
CTC1_L_00079015-04
1 10059U 22314LW  26075.70030093  .00000000  00000+0  00000-0 0  9998
2 10059  90.0000 168.0000 0000000   0.0000  78.0000 14.89338871    19
CTC1_L_00079016-01
1 10060U 23299KP  26075.70030093  .00000000  00000+0  00000-0 0  9993
2 10060  90.0000 180.0000 0000000   0.0000 180.0000 14.89338871    19
CTC1_L_00079016-02
1 10061U 22052IB  26075.70030093  .00000000  00000+0  00000-0 0  9990
2 10061  90.0000 180.0000 0000000   0.0000 270.0000 14.89338871    10
